{
  "type": "FeatureCollection",
  "features": [
    {
      "type": "Feature",
      "properties": {
        "norad_id": 66565,
        "name": "STARLINK-35893",
        "group": "last-30-days",
        "lat": -38.95841526507117,
        "lon": 89.04475930630755,
        "alt_km": 400.3087707795594,
        "timestamp": "2025-12-07T22:37:41.857443+00:00",
        "meta_object_name": "STARLINK-35893",
        "meta_object_id": "2025-268J",
        "meta_epoch": "2025-12-07T06:00:04.999968",
        "meta_mean_motion": 15.59228524,
        "meta_eccentricity": 0.00018367,
        "meta_inclination": 42.9996,
        "meta_ra_of_asc_node": 153.3377,
        "meta_arg_of_pericenter": 277.1764,
        "meta_mean_anomaly": 85.9481,
        "meta_ephemeris_type": 0,
        "meta_classification_type": "U",
        "meta_norad_cat_id": 66565,
        "meta_element_set_no": 999,
        "meta_rev_at_epoch": 378,
        "meta_bstar": -0.028461012,
        "meta_mean_motion_dot": -0.0201291,
        "meta_mean_motion_ddot": 0,
        "tle_line1": "1 66565U 25268J   25341.25005787 -.02012910  00000+0 -28461-1 0  9998",
        "tle_line2": "2 66565  42.9996 153.3377 0001836 277.1764  85.9481 15.59228524  3786"
      },
      "geometry": {
        "type": "Point",
        "coordinates": [
          89.04475930630755,
          -38.95841526507117
        ]
      }
    },
    {
      "type": "Feature",
      "properties": {
        "norad_id": 66566,
        "name": "STARLINK-35871",
        "group": "last-30-days",
        "lat": -38.286681803685894,
        "lon": 91.33628749911506,
        "alt_km": 400.3992426229015,
        "timestamp": "2025-12-07T22:37:41.857456+00:00",
        "meta_object_name": "STARLINK-35871",
        "meta_object_id": "2025-268K",
        "meta_epoch": "2025-12-07T06:00:04.999968",
        "meta_mean_motion": 15.59232298,
        "meta_eccentricity": 0.00017812,
        "meta_inclination": 42.9997,
        "meta_ra_of_asc_node": 153.3324,
        "meta_arg_of_pericenter": 271.2961,
        "meta_mean_anomaly": 93.7463,
        "meta_ephemeris_type": 0,
        "meta_classification_type": "U",
        "meta_norad_cat_id": 66566,
        "meta_element_set_no": 999,
        "meta_rev_at_epoch": 378,
        "meta_bstar": -0.028554886,
        "meta_mean_motion_dot": -0.02018926,
        "meta_mean_motion_ddot": 0,
        "tle_line1": "1 66566U 25268K   25341.25005787 -.02018926  00000+0 -28555-1 0  9996",
        "tle_line2": "2 66566  42.9997 153.3324 0001781 271.2961  93.7463 15.59232298  3783"
      },
      "geometry": {
        "type": "Point",
        "coordinates": [
          91.33628749911506,
          -38.286681803685894
        ]
      }
    },
    {
      "type": "Feature",
      "properties": {
        "norad_id": 66567,
        "name": "STARLINK-35825",
        "group": "last-30-days",
        "lat": -37.57178390702971,
        "lon": 93.58368667414713,
        "alt_km": 400.47160144702866,
        "timestamp": "2025-12-07T22:37:41.857466+00:00",
        "meta_object_name": "STARLINK-35825",
        "meta_object_id": "2025-268L",
        "meta_epoch": "2025-12-07T06:00:04.999968",
        "meta_mean_motion": 15.59233492,
        "meta_eccentricity": 0.0001718,
        "meta_inclination": 43.0001,
        "meta_ra_of_asc_node": 153.3279,
        "meta_arg_of_pericenter": 268.7445,
        "meta_mean_anomaly": 98.2166,
        "meta_ephemeris_type": 0,
        "meta_classification_type": "U",
        "meta_norad_cat_id": 66567,
        "meta_element_set_no": 999,
        "meta_rev_at_epoch": 378,
        "meta_bstar": -0.028602425,
        "meta_mean_motion_dot": -0.02021895,
        "meta_mean_motion_ddot": 0,
        "tle_line1": "1 66567U 25268L   25341.25005787 -.02021895  00000+0 -28602-1 0  9999",
        "tle_line2": "2 66567  43.0001 153.3279 0001718 268.7445  98.2166 15.59233492  3786"
      },
      "geometry": {
        "type": "Point",
        "coordinates": [
          93.58368667414713,
          -37.57178390702971
        ]
      }
    },
    {
      "type": "Feature",
      "properties": {
        "norad_id": 66568,
        "name": "STARLINK-35803",
        "group": "last-30-days",
        "lat": -36.81419974769753,
        "lon": 95.78688704694012,
        "alt_km": 400.4199848695853,
        "timestamp": "2025-12-07T22:37:41.857476+00:00",
        "meta_object_name": "STARLINK-35803",
        "meta_object_id": "2025-268M",
        "meta_epoch": "2025-12-07T06:00:04.999968",
        "meta_mean_motion": 15.59234179,
        "meta_eccentricity": 0.00017968,
        "meta_inclination": 43,
        "meta_ra_of_asc_node": 153.3226,
        "meta_arg_of_pericenter": 267.8474,
        "meta_mean_anomaly": 101.0289,
        "meta_ephemeris_type": 0,
        "meta_classification_type": "U",
        "meta_norad_cat_id": 66568,
        "meta_element_set_no": 999,
        "meta_rev_at_epoch": 378,
        "meta_bstar": -0.028604869,
        "meta_mean_motion_dot": -0.02022154,
        "meta_mean_motion_ddot": 0,
        "tle_line1": "1 66568U 25268M   25341.25005787 -.02022154  00000+0 -28605-1 0  9992",
        "tle_line2": "2 66568  43.0000 153.3226 0001796 267.8474 101.0289 15.59234179  3788"
      },
      "geometry": {
        "type": "Point",
        "coordinates": [
          95.78688704694012,
          -36.81419974769753
        ]
      }
    },
    {
      "type": "Feature",
      "properties": {
        "norad_id": 66569,
        "name": "STARLINK-35835",
        "group": "last-30-days",
        "lat": -36.01644082516519,
        "lon": 97.94632756517404,
        "alt_km": 400.3940837310647,
        "timestamp": "2025-12-07T22:37:41.857486+00:00",
        "meta_object_name": "STARLINK-35835",
        "meta_object_id": "2025-268N",
        "meta_epoch": "2025-12-07T06:00:04.999968",
        "meta_mean_motion": 15.59235629,
        "meta_eccentricity": 0.0001811,
        "meta_inclination": 42.9998,
        "meta_ra_of_asc_node": 153.3178,
        "meta_arg_of_pericenter": 267.9775,
        "meta_mean_anomaly": 102.8144,
        "meta_ephemeris_type": 0,
        "meta_classification_type": "U",
        "meta_norad_cat_id": 66569,
        "meta_element_set_no": 999,
        "meta_rev_at_epoch": 378,
        "meta_bstar": -0.028617633,
        "meta_mean_motion_dot": -0.02023052,
        "meta_mean_motion_ddot": 0,
        "tle_line1": "1 66569U 25268N   25341.25005787 -.02023052  00000+0 -28618-1 0  9995",
        "tle_line2": "2 66569  42.9998 153.3178 0001811 267.9775 102.8144 15.59235629  3782"
      },
      "geometry": {
        "type": "Point",
        "coordinates": [
          97.94632756517404,
          -36.01644082516519
        ]
      }
    },
    {
      "type": "Feature",
      "properties": {
        "norad_id": 66570,
        "name": "STARLINK-35834",
        "group": "last-30-days",
        "lat": -35.1837004312626,
        "lon": 100.05470600975016,
        "alt_km": 400.37787239738736,
        "timestamp": "2025-12-07T22:37:41.857496+00:00",
        "meta_object_name": "STARLINK-35834",
        "meta_object_id": "2025-268P",
        "meta_epoch": "2025-12-07T06:00:04.999968",
        "meta_mean_motion": 15.59237486,
        "meta_eccentricity": 0.00017203,
        "meta_inclination": 43.0002,
        "meta_ra_of_asc_node": 153.3125,
        "meta_arg_of_pericenter": 272.2424,
        "meta_mean_anomaly": 100.4674,
        "meta_ephemeris_type": 0,
        "meta_classification_type": "U",
        "meta_norad_cat_id": 66570,
        "meta_element_set_no": 999,
        "meta_rev_at_epoch": 378,
        "meta_bstar": -0.028681391,
        "meta_mean_motion_dot": -0.02027044,
        "meta_mean_motion_ddot": 0,
        "tle_line1": "1 66570U 25268P   25341.25005787 -.02027044  00000+0 -28681-1 0  9992",
        "tle_line2": "2 66570  43.0002 153.3125 0001720 272.2424 100.4674 15.59237486  3788"
      },
      "geometry": {
        "type": "Point",
        "coordinates": [
          100.05470600975016,
          -35.1837004312626
        ]
      }
    },
    {
      "type": "Feature",
      "properties": {
        "norad_id": 66571,
        "name": "STARLINK-35836",
        "group": "last-30-days",
        "lat": -34.31107129839096,
        "lon": 102.12877372719724,
        "alt_km": 400.32789210763985,
        "timestamp": "2025-12-07T22:37:41.857506+00:00",
        "meta_object_name": "STARLINK-35836",
        "meta_object_id": "2025-268Q",
        "meta_epoch": "2025-12-07T06:00:04.999968",
        "meta_mean_motion": 15.59234624,
        "meta_eccentricity": 0.00017955,
        "meta_inclination": 43.0004,
        "meta_ra_of_asc_node": 153.3081,
        "meta_arg_of_pericenter": 270.5977,
        "meta_mean_anomaly": 104.0303,
        "meta_ephemeris_type": 0,
        "meta_classification_type": "U",
        "meta_norad_cat_id": 66571,
        "meta_element_set_no": 999,
        "meta_rev_at_epoch": 378,
        "meta_bstar": -0.028627528,
        "meta_mean_motion_dot": -0.02023582,
        "meta_mean_motion_ddot": 0,
        "tle_line1": "1 66571U 25268Q   25341.25005787 -.02023582  00000+0 -28628-1 0  9997",
        "tle_line2": "2 66571  43.0004 153.3081 0001795 270.5977 104.0303 15.59234624  3788"
      },
      "geometry": {
        "type": "Point",
        "coordinates": [
          102.12877372719724,
          -34.31107129839096
        ]
      }
    }
  ]
}